{
  "type": "FeatureCollection",
  "features": [
    {
      "type": "Feature",
      "properties": {
        "norad_id": 36744,
        "name": "COMS 1",
        "group": "weather",
        "lat": -4.205707708545217,
        "lon": -24.7173698140315,
        "alt_km": 35785.90736621246,
        "timestamp": "2025-12-03T08:58:45.641124+00:00",
        "meta_object_name": "COMS 1",
        "meta_object_id": "2010-032A",
        "meta_epoch": "2025-12-02T15:57:07.381728",
        "meta_mean_motion": 1.00270136,
        "meta_eccentricity": 0.00010793,
        "meta_inclination": 4.3152,
        "meta_ra_of_asc_node": 78.1083,
        "meta_arg_of_pericenter": 183.7473,
        "meta_mean_anomaly": 177.3637,
        "meta_ephemeris_type": 0,
        "meta_classification_type": "U",
        "meta_norad_cat_id": 36744,
        "meta_element_set_no": 999,
        "meta_rev_at_epoch": 4912,
        "meta_bstar": 0,
        "meta_mean_motion_dot": -3.25e-06,
        "meta_mean_motion_ddot": 0,
        "tle_line1": "1 36744U 10032A   25336.66466877 -.00000325  00000+0  00000+0 0  9998",
        "tle_line2": "2 36744   4.3152  78.1083 0001079 183.7473 177.3637  1.00270136 49128"
      },
      "geometry": {
        "type": "Point",
        "coordinates": [
          -24.7173698140315,
          -4.205707708545217
        ]
      }
    },
    {
      "type": "Feature",
      "properties": {
        "norad_id": 37214,
        "name": "FENGYUN 3B",
        "group": "weather",
        "lat": -58.80091313150291,
        "lon": -177.8716727034486,
        "alt_km": 863.2556412390322,
        "timestamp": "2025-12-03T08:58:45.641136+00:00",
        "meta_object_name": "FENGYUN 3B",
        "meta_object_id": "2010-059A",
        "meta_epoch": "2025-12-03T04:51:36.791424",
        "meta_mean_motion": 14.14785376,
        "meta_eccentricity": 0.0022453,
        "meta_inclination": 98.9922,
        "meta_ra_of_asc_node": 17.1127,
        "meta_arg_of_pericenter": 24.6258,
        "meta_mean_anomaly": 61.796,
        "meta_ephemeris_type": 0,
        "meta_classification_type": "U",
        "meta_norad_cat_id": 37214,
        "meta_element_set_no": 999,
        "meta_rev_at_epoch": 77971,
        "meta_bstar": 9.3694e-05,
        "meta_mean_motion_dot": 1.36e-06,
        "meta_mean_motion_ddot": 0,
        "tle_line1": "1 37214U 10059A   25337.20250916  .00000136  00000+0  93694-4 0  9991",
        "tle_line2": "2 37214  98.9922  17.1127 0022453  24.6258  61.7960 14.14785376779716"
      },
      "geometry": {
        "type": "Point",
        "coordinates": [
          -177.8716727034486,
          -58.80091313150291
        ]
      }
    },
    {
      "type": "Feature",
      "properties": {
        "norad_id": 37849,
        "name": "SUOMI NPP",
        "group": "weather",
        "lat": -75.20007301139424,
        "lon": -49.41966235115974,
        "alt_km": 835.4276544819259,
        "timestamp": "2025-12-03T08:58:45.641148+00:00",
        "meta_object_name": "SUOMI NPP",
        "meta_object_id": "2011-061A",
        "meta_epoch": "2025-12-03T04:16:17.718240",
        "meta_mean_motion": 14.19509732,
        "meta_eccentricity": 0.0001889,
        "meta_inclination": 98.7759,
        "meta_ra_of_asc_node": 274.6063,
        "meta_arg_of_pericenter": 137.1209,
        "meta_mean_anomaly": 223.0115,
        "meta_ephemeris_type": 0,
        "meta_classification_type": "U",
        "meta_norad_cat_id": 37849,
        "meta_element_set_no": 999,
        "meta_rev_at_epoch": 73063,
        "meta_bstar": 8.8145e-05,
        "meta_mean_motion_dot": 1.42e-06,
        "meta_mean_motion_ddot": 0,
        "tle_line1": "1 37849U 11061A   25337.17798285  .00000142  00000+0  88145-4 0  9993",
        "tle_line2": "2 37849  98.7759 274.6063 0001889 137.1209 223.0115 14.19509732730639"
      },
      "geometry": {
        "type": "Point",
        "coordinates": [
          -49.41966235115974,
          -75.20007301139424
        ]
      }
    },
    {
      "type": "Feature",
      "properties": {
        "norad_id": 38552,
        "name": "METEOSAT-10 (MSG-3)",
        "group": "weather",
        "lat": 2.3586163695979963,
        "lon": -152.69710535643867,
        "alt_km": 35784.750545272545,
        "timestamp": "2025-12-03T08:58:45.641161+00:00",
        "meta_object_name": "METEOSAT-10 (MSG-3)",
        "meta_object_id": "2012-035B",
        "meta_epoch": "2025-12-03T01:46:14.361312",
        "meta_mean_motion": 1.00272334,
        "meta_eccentricity": 7.5e-05,
        "meta_inclination": 4.2044,
        "meta_ra_of_asc_node": 61.7366,
        "meta_arg_of_pericenter": 219.9554,
        "meta_mean_anomaly": 177.1386,
        "meta_ephemeris_type": 0,
        "meta_classification_type": "U",
        "meta_norad_cat_id": 38552,
        "meta_element_set_no": 999,
        "meta_rev_at_epoch": 4889,
        "meta_bstar": 0,
        "meta_mean_motion_dot": 1.1e-07,
        "meta_mean_motion_ddot": 0,
        "tle_line1": "1 38552U 12035B   25337.07377733  .00000011  00000+0  00000+0 0  9991",
        "tle_line2": "2 38552   4.2044  61.7366 0000750 219.9554 177.1386  1.00272334 48899"
      },
      "geometry": {
        "type": "Point",
        "coordinates": [
          -152.69710535643867,
          2.3586163695979963
        ]
      }
    },
    {
      "type": "Feature",
      "properties": {
        "norad_id": 38771,
        "name": "METOP-B",
        "group": "weather",
        "lat": 68.68282951698251,
        "lon": 4.441642184484998,
        "alt_km": 814.0606605142102,
        "timestamp": "2025-12-03T08:58:45.641173+00:00",
        "meta_object_name": "METOP-B",
        "meta_object_id": "2012-049A",
        "meta_epoch": "2025-12-03T03:34:50.530080",
        "meta_mean_motion": 14.21402492,
        "meta_eccentricity": 0.0002479,
        "meta_inclination": 98.6813,
        "meta_ra_of_asc_node": 27.27,
        "meta_arg_of_pericenter": 165.9817,
        "meta_mean_anomaly": 194.143,
        "meta_ephemeris_type": 0,
        "meta_classification_type": "U",
        "meta_norad_cat_id": 38771,
        "meta_element_set_no": 999,
        "meta_rev_at_epoch": 68541,
        "meta_bstar": 0.00011734,
        "meta_mean_motion_dot": 2.13e-06,
        "meta_mean_motion_ddot": 0,
        "tle_line1": "1 38771U 12049A   25337.14919595  .00000213  00000+0  11734-3 0  9999",
        "tle_line2": "2 38771  98.6813  27.2700 0002479 165.9817 194.1430 14.21402492685415"
      },
      "geometry": {
        "type": "Point",
        "coordinates": [
          4.441642184484998,
          68.68282951698251
        ]
      }
    },
    {
      "type": "Feature",
      "properties": {
        "norad_id": 39216,
        "name": "INSAT-3D",
        "group": "weather",
        "lat": -1.337892786783443,
        "lon": -23.337149881440403,
        "alt_km": 35786.66686866525,
        "timestamp": "2025-12-03T08:58:45.641185+00:00",
        "meta_object_name": "INSAT-3D",
        "meta_object_id": "2013-038B",
        "meta_epoch": "2025-12-02T22:57:43.657920",
        "meta_mean_motion": 1.00274051,
        "meta_eccentricity": 0.000173,
        "meta_inclination": 1.4174,
        "meta_ra_of_asc_node": 85.1028,
        "meta_arg_of_pericenter": 153.7343,
        "meta_mean_anomaly": 307.1613,
        "meta_ephemeris_type": 0,
        "meta_classification_type": "U",
        "meta_norad_cat_id": 39216,
        "meta_element_set_no": 999,
        "meta_rev_at_epoch": 4511,
        "meta_bstar": 0,
        "meta_mean_motion_dot": -3.19e-06,
        "meta_mean_motion_ddot": 0,
        "tle_line1": "1 39216U 13038B   25336.95675530 -.00000319  00000+0  00000+0 0  9997",
        "tle_line2": "2 39216   1.4174  85.1028 0001730 153.7343 307.1613  1.00274051 45113"
      },
      "geometry": {
        "type": "Point",
        "coordinates": [
          -23.337149881440403,
          -1.337892786783443
        ]
      }
    },
    {
      "type": "Feature",
      "properties": {
        "norad_id": 39260,
        "name": "FENGYUN 3C",
        "group": "weather",
        "lat": 29.68594563551625,
        "lon": 140.38722209817897,
        "alt_km": 835.7274415046304,
        "timestamp": "2025-12-03T08:58:45.641196+00:00",
        "meta_object_name": "FENGYUN 3C",
        "meta_object_id": "2013-052A",
        "meta_epoch": "2025-12-03T04:52:48.291744",
        "meta_mean_motion": 14.1569144,
        "meta_eccentricity": 0.0013813,
        "meta_inclination": 98.4753,
        "meta_ra_of_asc_node": 315.3488,
        "meta_arg_of_pericenter": 224.7306,
        "meta_mean_anomaly": 135.2755,
        "meta_ephemeris_type": 0,
        "meta_classification_type": "U",
        "meta_norad_cat_id": 39260,
        "meta_element_set_no": 999,
        "meta_rev_at_epoch": 63083,
        "meta_bstar": 0.00011083,
        "meta_mean_motion_dot": 1.76e-06,
        "meta_mean_motion_ddot": 0,
        "tle_line1": "1 39260U 13052A   25337.20333671  .00000176  00000+0  11083-3 0  9995",
        "tle_line2": "2 39260  98.4753 315.3488 0013813 224.7306 135.2755 14.15691440630833"
      },
      "geometry": {
        "type": "Point",
        "coordinates": [
          140.38722209817897,
          29.68594563551625
        ]
      }
    }
  ]
}